{
    "CCSDS_OMM_VERS": "3.0",
    "COMMENT": "GENERATED VIA SPACE-TRACK.ORG API",
    "CREATION_DATE": "2025-05-22T17:14:14",
    "ORIGINATOR": "18 SPCS",
    "OBJECT_NAME": "COSMOS 2478 (GLONASS)",
    "OBJECT_ID": "2011-071A",
    "CENTER_NAME": "EARTH",
    "REF_FRAME": "TEME",
    "TIME_SYSTEM": "UTC",
    "MEAN_ELEMENT_THEORY": "SGP4",
    "EPOCH": "2025-05-22T03:08:00.307968",
    "MEAN_MOTION": "2.13015452",
    "ECCENTRICITY": "0.00164270",
    "INCLINATION": "65.6805",
    "RA_OF_ASC_NODE": "328.0357",
    "ARG_OF_PERICENTER": "219.6719",
    "MEAN_ANOMALY": "315.2529",
    "EPHEMERIS_TYPE": "0",
    "CLASSIFICATION_TYPE": "U",
    "NORAD_CAT_ID": "37938",
    "ELEMENT_SET_NO": "999",
    "REV_AT_EPOCH": "10481",
    "BSTAR": "0.00000000000000",
    "MEAN_MOTION_DOT": "-0.00000021",
    "MEAN_MOTION_DDOT": "0.0000000000000",
    "SEMIMAJOR_AXIS": "25514.933",
    "PERIOD": "676.007",
    "APOAPSIS": "19178.712",
    "PERIAPSIS": "19094.885",
    "OBJECT_TYPE": "PAYLOAD",
    "RCS_SIZE": "LARGE",
    "COUNTRY_CODE": "CIS",
    "LAUNCH_DATE": "2011-11-28",
    "SITE": "PKMTR",
    "DECAY_DATE": null,
    "FILE": "4736220",
    "GP_ID": "288141327",
    "TLE_LINE0": "0 COSMOS 2478 (GLONASS)",
    "TLE_LINE1": "1 37938U 11071A   25142.13055912 -.00000021  00000-0  00000-0 0  9994",
    "TLE_LINE2": "2 37938  65.6805 328.0357 0016427 219.6719 315.2529  2.13015452104819"
}